NORAD_CAT_ID,OBJECT_NAME,OBJECT_TYPE,EPOCH,MEAN_MOTION,ECCENTRICITY,INCLINATION,RA_OF_ASC_NODE,ARG_OF_PERICENTER,MEAN_ANOMALY,BSTAR,MEAN_MOTION_DOT,MEAN_MOTION_DDOT,TLE_LINE0,TLE_LINE1,TLE_LINE2,SEMIMAJOR_AXIS,PERIOD,APOGEE,PERIGEE,DECAYED
51132.0,STARLINK-3393,PAYLOAD,2023-01-13 13:20:44,15.0882064,0.0002343,53.2143,66.7698,35.9844,324.1306,-0.00028219,-4.774e-05,0.0,0 STARLINK-3393,1 51132U 22005AE  23013.55607412 -.00004774  00000-0 -28219-3 0  9999,2 51132  53.2143  66.7698 0002343  35.9844 324.1306 15.08820640 56069,6917.94,95.439,541.425,538.184,0.0
51132.0,STARLINK-3393,PAYLOAD,2023-01-14 00:28:26,15.08827762,0.0002358,53.2146,64.6895,35.4318,324.683,4.2286e-05,3.85e-06,0.0,0 STARLINK-3393,1 51132U 22005AE  23014.01975552  .00000385  00000-0  42286-4 0  9997,2 51132  53.2146  64.6895 0002358  35.4318 324.6830 15.08827762 56132,6917.918000000001,95.438,541.414,538.1519999999999,0.0
51132.0,STARLINK-3393,PAYLOAD,2023-01-14 13:11:32,15.0885729,0.0002343999999999,53.2148,62.3107,39.4769,320.6393,0.0017223,0.00027242,0.0,0 STARLINK-3393,1 51132U 22005AE  23014.54967935  .00027242  00000-0  17223-2 0  9993,2 51132  53.2148  62.3107 0002344  39.4769 320.6393 15.08857290 56212,6917.828,95.436,541.314,538.071,0.0
51132.0,STARLINK-3393,PAYLOAD,2023-01-15 03:30:01,15.08841594,0.0002016,53.2149,59.6342,48.0597,312.0567,0.0012845999999999,0.00020217,0.0,0 STARLINK-3393,1 51132U 22005AE  23015.14584645  .00020217  00000-0  12846-2 0  9994,2 51132  53.2149  59.6342 0002016  48.0597 312.0567 15.08841594 56302,6917.876,95.437,541.135,538.346,0.0
51132.0,STARLINK-3393,PAYLOAD,2023-01-15 09:51:33,15.08850812,0.0002031,53.215,58.4454,48.0577,312.0587,0.0018618999999999,0.00029478,0.0,0 STARLINK-3393,1 51132U 22005AE  23015.41080579  .00029478  00000-0  18619-2 0  9993,2 51132  53.2150  58.4454 0002031  48.0577 312.0587 15.08850812 55225,6917.847,95.437,541.117,538.307,0.0
51132.0,STARLINK-3393,PAYLOAD,2023-01-15 19:23:52,15.08848318,0.0001759,53.2155,56.662,47.5988,312.5152,0.00077858,0.00012128,0.0,0 STARLINK-3393,1 51132U 22005AE  23015.80824411  .00012128  00000-0  77858-3 0  9992,2 51132  53.2155  56.6620 0001759  47.5988 312.5152 15.08848318 56403,6917.855,95.437,540.937,538.503,0.0
51132.0,STARLINK-3393,PAYLOAD,2023-01-16 11:17:43,15.08868413,0.000181,53.2152,53.69,59.1508,300.9662,0.00095078,0.00014888,0.0,0 STARLINK-3393,1 51132U 22005AE  23016.47063659  .00014888  00000-0  95078-3 0  9994,2 51132  53.2152  53.6900 0001810  59.1508 300.9662 15.08868413 55384,6917.794,95.436,540.911,538.406,0.0
51132.0,STARLINK-3393,PAYLOAD,2023-01-16 19:14:39,15.08835683,0.0001745,53.2154,52.1999,59.5452,300.5712,-0.0003234,-5.431e-05,0.0,0 STARLINK-3393,1 51132U 22005AE  23016.80184116 -.00005431  00000-0 -32340-3 0  9992,2 51132  53.2154  52.1999 0001745  59.5452 300.5712 15.08835683 56552,6917.894,95.438,540.966,538.5509999999999,0.0
51132.0,STARLINK-3393,PAYLOAD,2023-01-17 01:36:12,15.08818087,0.0002075,53.2141,51.0125,67.0068,293.1142,-0.00042888,-7.103e-05,0.0,0 STARLINK-3393,1 51132U 22005AE  23017.06680810 -.00007103  00000-0 -42888-3 0  9999,2 51132  53.2141  51.0125 0002075  67.0068 293.1142 15.08818087 56598,6917.946999999999,95.439,541.248,538.377,0.0
51132.0,STARLINK-3393,PAYLOAD,2023-01-17 06:22:22,15.08807955,0.0002088,53.2146,50.1194,69.3955,290.7261,-0.00054129,-8.885e-05,0.0,0 STARLINK-3393,1 51132U 22005AE  23017.26553479 -.00008885  00000-0 -54129-3 0  9990,2 51132  53.2146  50.1194 0002088  69.3955 290.7261 15.08807955 56624,6917.978,95.44,541.288,538.399,0.0
51132.0,STARLINK-3393,PAYLOAD,2023-01-17 19:05:28,15.08818081,0.0002406,53.216,47.7404,78.4165,281.7097,0.00069857,0.00010841,0.0,0 STARLINK-3393,1 51132U 22005AE  23017.79546596  .00010841  00000-0  69857-3 0  9997,2 51132  53.2160  47.7404 0002406  78.4165 281.7097 15.08818081 56702,6917.946999999999,95.439,541.477,538.148,0.0
51132.0,STARLINK-3393,PAYLOAD,2023-01-18 07:48:32,15.0887516,0.000169,53.2149,45.3615,79.1785,280.9397,0.0026306999999999,0.00041869,0.0,0 STARLINK-3393,1 51132U 22005AE  23018.32537919  .00041869  00000-0  26307-2 0  9992,2 51132  53.2149  45.3615 0001690  79.1785 280.9397 15.08875160 56780,6917.773,95.435,540.807,538.469,0.0
51132.0,STARLINK-3393,PAYLOAD,2023-01-18 10:59:18,15.08883865,0.0001686,53.2151,44.7669,78.9799,281.1382,0.0026213,0.00041728,0.0,0 STARLINK-3393,1 51132U 22005AE  23018.45785609  .00041728  00000-0  26213-2 0  9997,2 51132  53.2151  44.7669 0001686  78.9799 281.1382 15.08883865 55688,6917.746,95.435,540.778,538.445,0.0
51132.0,STARLINK-3393,PAYLOAD,2023-01-18 18:56:14,15.08873413,0.0001899,53.2146,43.2807,78.8575,281.2631,0.0013985999999999,0.00022061,0.0,0 STARLINK-3393,1 51132U 22005AE  23018.78905452  .00022061  00000-0  13986-2 0  9995,2 51132  53.2146  43.2807 0001899  78.8575 281.2631 15.08873413 56853,6917.778,95.435,540.957,538.33,0.0
51132.0,STARLINK-3393,PAYLOAD,2023-01-19 10:50:05,15.08872973,0.0001460999999999,53.2145,40.3057,85.4725,274.6434,0.0021084,0.00033457,0.0,0 STARLINK-3393,1 51132U 22005AE  23019.45144677  .00033457  00000-0  21084-2 0  9993,2 51132  53.2145  40.3057 0001461  85.4725 274.6434 15.08872973 56951,6917.78,95.435,540.655,538.634,0.0
51132.0,STARLINK-3393,PAYLOAD,2023-01-19 18:47:00,15.08862187,0.0001056,53.2151,38.8193,95.859,264.2523,0.001076,0.00016888,0.0,0 STARLINK-3393,1 51132U 22005AE  23019.78264526  .00016888  00000-0  10760-2 0  9993,2 51132  53.2151  38.8193 0001056  95.8590 264.2523 15.08862187 57003,6917.813,95.436,540.408,538.947,0.0
51132.0,STARLINK-3393,PAYLOAD,2023-01-20 07:30:06,15.08848133,0.000149,53.2152,36.44,98.4814,261.6347,0.0015624,0.00024671,0.0,0 STARLINK-3393,1 51132U 22005AE  23020.31257019  .00024671  00000-0  15624-2 0  9996,2 51132  53.2152  36.4400 0001490  98.4814 261.6347 15.08848133 57087,6917.856,95.437,540.751,538.69,0.0
51132.0,STARLINK-3393,PAYLOAD,2023-01-21 10:31:39,15.0885936,0.0001492,53.2149,31.3843,87.244,272.8723,0.0014390999999999,0.00022702,0.0,0 STARLINK-3393,1 51132U 22005AE  23021.43865336  .00022702  00000-0  14391-2 0  9990,2 51132  53.2149  31.3843 0001492  87.2440 272.8723 15.08859360 57256,6917.821,95.436,540.7180000000001,538.654,0.0
51132.0,STARLINK-3393,PAYLOAD,2023-01-22 07:11:40,15.08860944,0.0001341999999999,53.2155,27.5183,95.1291,264.9855,0.0011993,0.00018861,0.0,0 STARLINK-3393,1 51132U 22005AE  23022.29976985  .00018861  00000-0  11993-2 0  9994,2 51132  53.2155  27.5183 0001342  95.1291 264.9855 15.08860944 57385,6917.816,95.436,540.61,538.753,0.0
51132.0,STARLINK-3393,PAYLOAD,2023-01-22 16:43:58,15.08851389,0.0001105,53.2152,25.7328,88.1028,272.009,0.00052438,8.070000000000001e-05,0.0,0 STARLINK-3393,1 51132U 22005AE  23022.69720827  .00008070  00000-0  52438-3 0  9991,2 51132  53.2152  25.7328 0001105  88.1028 272.0090 15.08851389 57441,6917.846,95.437,540.475,538.946,0.0
51132.0,STARLINK-3393,PAYLOAD,2023-01-23 16:34:45,15.08849105,0.0001361,53.2158,21.2718,92.8292,267.2856,0.0005156,7.929e-05,0.0,0 STARLINK-3393,1 51132U 22005AE  23023.69080474  .00007929  00000-0  51560-3 0  9996,2 51132  53.2158  21.2718 0001361  92.8292 267.2856 15.08849105 57595,6917.853,95.437,540.659,538.776,0.0
51132.0,STARLINK-3393,PAYLOAD,2023-01-24 05:17:51,15.08833176,0.0001486,53.2161,18.8957,99.9765,260.1395,6.2872e-05,7.13e-06,0.0,0 STARLINK-3393,1 51132U 22005AE  23024.22073090  .00000713  00000-0  62872-4 0  9995,2 51132  53.2161  18.8957 0001486  99.9765 260.1395 15.08833176 57677,6917.901,95.438,540.794,538.738,0.0
51132.0,STARLINK-3393,PAYLOAD,2023-01-25 08:19:25,15.08838138,0.0001286999999999,53.2157,13.8397,91.0644,269.0495,0.00031384,4.71e-05,0.0,0 STARLINK-3393,1 51132U 22005AE  23025.34681899  .00004710  00000-0  31384-3 0  9995,2 51132  53.2157  13.8397 0001287  91.0644 269.0495 15.08838138 57844,6917.886,95.438,540.641,538.861,0.0
51132.0,STARLINK-3393,PAYLOAD,2023-01-25 16:16:21,15.08834033,0.0001293,53.2155,12.3533,81.5418,278.572,0.00031694,4.759e-05,0.0,0 STARLINK-3393,1 51132U 22005AE  23025.67802306  .00004759  00000-0  31694-3 0  9996,2 51132  53.2155  12.3533 0001293  81.5418 278.5720 15.08834033 57899,6917.899,95.438,540.658,538.869,0.0
51132.0,STARLINK-3393,PAYLOAD,2023-01-26 08:10:12,15.08846214,0.0001252999999999,53.2147,9.3775,85.50299999999999,274.6105,0.00054892,8.46e-05,0.0,0 STARLINK-3393,1 51132U 22005AE  23026.34042237  .00008460  00000-0  54892-3 0  9998,2 51132  53.2147   9.3775 0001253  85.5030 274.6105 15.08846214 56879,6917.861,95.437,540.5930000000001,538.86,0.0
51132.0,STARLINK-3393,PAYLOAD,2023-01-27 04:50:13,15.08853419,0.0001158,53.2157,5.5131,89.9005,270.212,0.00047548,7.290000000000001e-05,0.0,0 STARLINK-3393,1 51132U 22005AE  23027.20154004  .00007290  00000-0  47548-3 0  9990,2 51132  53.2157   5.5131 0001158  89.9005 270.2120 15.08853419 58122,6917.839,95.437,540.505,538.903,0.0
51132.0,STARLINK-3393,PAYLOAD,2023-01-28 04:41:00,15.08844927,0.0001291,53.215,1.0516,85.2212,274.8927,0.00020957,3.049e-05,0.0,0 STARLINK-3393,1 51132U 22005AE  23028.19514293  .00003049  00000-0  20957-3 0  9992,2 51132  53.2150   1.0516 0001291  85.2212 274.8927 15.08844927 58275,6917.865,95.437,540.623,538.837,0.0
51132.0,STARLINK-3393,PAYLOAD,2023-01-28 07:51:46,15.08845536,0.0001347,53.2157,0.4565,86.512,273.6026,0.00021465,3.13e-05,0.0,0 STARLINK-3393,1 51132U 22005AE  23028.32762246  .00003130  00000-0  21465-3 0  9996,2 51132  53.2157   0.4565 0001347  86.5120 273.6026 15.08845536 57175,6917.863,95.437,540.66,538.797,0.0
51132.0,STARLINK-3393,PAYLOAD,2023-01-29 06:07:10,15.08853258,0.0001565,53.2162,356.2919,98.9131,261.2038,0.00030593,4.586e-05,0.0,0 STARLINK-3393,1 51132U 22005AE  23029.25497837  .00004586  00000-0  30593-3 0  9998,2 51132  53.2162 356.2919 0001565  98.9131 261.2038 15.08853258 58433,6917.84,95.437,540.788,538.622,0.0
